157P-B/Tritton,e,12.4267,287.0821,153.9589,3.101604,0.1804366,0.49977440,53.9444,07/04.0/2023,2000,g 15.7,4.0
# From MPEC 2023-A50
158P/Kowal-LINEAR,e,7.3394,130.6196,201.5327,5.430817,0.0778765,0.10673023,40.7481,07/04.0/2023,2000,g  9.0,4.0
# From MPEC 2021-N06
159P/LONEOS,e,23.4862,54.9415,4.5992,5.852800,0.0696079,0.38267507,129.9635,07/04.0/2023,2000,g 10.0,4.0
# From MPEC 2022-K19
160P/LINEAR,e,15.6077,333.3590,12.7931,3.777277,0.1342567,0.52591878,175.7919,07/04.0/2023,2000,g 15.5,2.0
# From MPC 75721
161P/Hartley-IRAS,e,95.7980,1.5710,47.0499,7.715258,0.0459916,0.83561452,302.8305,07/04.0/2023,2000,g  8.5,6.0
# From MPEC 2023-M14
162P/SidingSpring,e,27.5655,30.8880,357.1970,3.092182,0.1812619,0.58316998,169.9844,07/04.0/2023,2000,g 13.7,4.0
# From MPEC 2021-S45
163P/NEAT,e,12.7182,102.0657,349.5585,3.764193,0.1349573,0.45280723,192.7506,07/04.0/2023,2000,g 14.5,4.0
# From MPEC 2021-F20
164P/Christensen,e,16.2725,88.2650,325.8891,3.653833,0.1411176,0.54108502,262.1501,07/04.0/2023,2000,g 11.0,4.0
# From MPC 75721
165P/LINEAR,e,15.8959,0.8461,125.7685,17.83129,0.0130897,0.61707312,110.5133,07/04.0/2023,2000,g 11.5,2.0
# From MPC 75722
166P/NEAT,e,15.3873,64.3346,321.7227,13.81827,0.0191877,0.38458594,147.6957,07/04.0/2023,2000,g  5.5,4.0
# From MPEC 2023-J29
167P/CINEOS,e,19.0979,295.7570,344.7847,16.25393,0.0150406,0.26924926,121.8514,07/04.0/2023,2000,g  9.5,2.0
# From MPEC 2023-J29
168P/Hergenrother,e,21.6123,355.4304,15.0515,3.587018,0.1450787,0.62166460,206.6962,07/04.0/2023,2000,g 15.5,4.0
# From MPEC 2023-J95
169P/NEAT,e,11.2977,176.1005,218.0605,2.602871,0.2347065,0.76834513,84.3304,07/04.0/2023,2000,g 16.0,2.0
# From MPEC 2023-A50
170P/Christensen,e,10.1133,142.8746,225.3435,4.212419,0.1140005,0.30592728,8.6378,07/04.0/2023,2000,g 12.0,4.0
# From MPC102102
171P/Spahr,e,21.9493,101.6889,347.0489,3.553464,0.1471385,0.50230811,240.1933,07/04.0/2023,2000,g 13.5,4.0
# From MPEC 2023-J95
172P/Yeung,e,11.2253,30.8748,209.1828,4.218172,0.1137674,0.20449484,262.8314,07/04.0/2023,2000,g 13.0,4.0
# From MPEC 2023-N01
173P/Mueller,e,16.4892,100.3735,29.1552,5.710585,0.0722243,0.26166177,40.7755,07/04.0/2023,2000,g  7.5,4.0
# From MPC 92985
174P/Echeclus,e,4.3438,173.1910,163.4539,10.74809,0.0279709,0.45666717,83.6535,07/04.0/2023,2000,g  9.4,2.0
# From MPC114608
175P/Hergenrother,e,4.9101,110.8144,74.9338,3.654120,0.1411009,0.38574707,197.3720,07/04.0/2023,2000,g 14.0,4.0
# From MPC 89015
176P/LINEAR,e,0.2313,345.7524,34.3763,3.195434,0.1725478,0.19252544,38.9225,07/04.0/2023,2000,g 15.1,2.0
# From MPEC 2020-L06
177P/Barnard,e,31.0743,271.8338,60.6997,24.50150,0.0081267,0.95503979,49.9380,07/04.0/2023,2000,g 15.0,4.0
# From MPEC 2021-F20
178P/Hug-Bell,e,11.0879,102.8214,297.8734,3.632734,0.1423488,0.48252216,153.9789,07/04.0/2023,2000,g 14.6,4.0
# From MPEC 2023-HD1
179P/Jedicke,e,19.8969,115.5151,297.0197,5.932960,0.0682020,0.30583243,27.2098,07/04.0/2023,2000,g 12.5,4.0
# From MPEC 2023-N01
180P/NEAT,e,16.8600,84.5654,94.6648,3.867786,0.1295718,0.35342034,358.9401,07/04.0/2023,2000,g 11.0,4.0
# From MPC 89012
181P/Shoemaker-Levy,e,17.4865,35.3940,336.2853,3.876153,0.1291525,0.70053162,69.9028,07/04.0/2023,2000,g 11.5,4.0
# From MPEC 2014-J10
182P/LONEOS,e,16.2299,72.4584,54.2129,2.950026,0.1945205,0.66331043,81.2589,07/04.0/2023,2000,g 18.0,4.0
# From MPEC 2023-A50
183P/Korlevic-Juric,e,18.9200,3.9765,166.6021,4.667625,0.0977373,0.10661672,206.9347,07/04.0/2023,2000,g 12.5,2.0
# From MPEC 2020-W26
184P/Lovas,e,4.5737,173.2412,186.5666,3.797979,0.1331604,0.55081675,130.5850,07/04.0/2023,2000,g 13.5,4.0
# From MPEC 2023-N01
185P/Petriew,e,14.0147,214.1144,181.8878,3.098382,0.1807181,0.69974574,358.3919,07/04.0/2023,2000,g 15.0,4.0
# From MPEC 2022-X67
186P/Garradd,e,28.6428,326.2686,269.3892,4.853226,0.0921846,0.12419484,151.7047,07/04.0/2023,2000,g  7.5,4.0
# From MPEC 2020-SI8
187P/LINEAR,e,13.6399,109.8735,131.2493,4.563425,0.1011038,0.15282348,190.1633,07/04.0/2023,2000,g  9.0,4.0
# From MPEC 2023-J29
188P/LINEAR-Mueller,e,10.5250,358.9575,26.6702,4.369794,0.1078978,0.41688656,250.6162,07/04.0/2023,2000,g 11.5,4.0
# From MPEC 2022-QD9
189P/NEAT,e,20.0750,281.6851,16.3223,2.944993,0.1950194,0.58885330,60.2915,07/04.0/2023,2000,g 19.0,4.0
# From MPEC 2020-K19
190P/Mueller,e,2.1742,335.5217,50.4415,4.229423,0.1133137,0.52225724,298.9208,07/04.0/2023,2000,g 13.0,4.0
# From MPEC 2022-X67
191P/McNaught,e,8.8393,98.2113,284.1685,3.638286,0.1420230,0.38593057,118.6596,07/04.0/2023,2000,g 13.0,4.0
# From MPC 75724
192P/Shoemaker-Levy,e,24.5885,51.6116,313.0696,6.464620,0.0599639,0.77340584,340.4904,07/04.0/2023,2000,g 15.0,4.0
# From MPEC 2022-Y15
193P/LINEAR-NEAT,e,10.6872,335.1805,8.1154,3.577135,0.1456804,0.39351920,98.7543,07/04.0/2023,2000,g 14.0,4.0
# From MPEC 2023-J29
194P/LINEAR,e,11.8103,349.5415,128.5122,4.124014,0.1176857,0.56360826,334.7064,07/04.0/2023,2000,g 16.0,4.0
# From MPEC 2023-D72
195P/Hill,e,36.3659,243.1064,249.4231,6.505298,0.0594023,0.31498662,315.2082,07/04.0/2023,2000,g  8.5,4.0
# From MPEC 2022-YN2
196P/Tichy,e,19.3017,24.1122,12.0421,3.803231,0.1328847,0.42801082,32.9156,07/04.0/2023,2000,g 13.5,4.0
# From MPC 94676
197P/LINEAR,e,25.5302,66.3518,188.7831,2.869029,0.2028157,0.62942624,42.2367,07/04.0/2023,2000,g 16.5,2.0
# From NK 1596
198P/ODAS,e,1.3385,358.2035,69.2416,3.595709,0.1445531,0.44449920,240.2030,07/04.0/2023,2000,g  9.0,4.0
# From MPEC 2023-N01
199P/Shoemaker,e,24.9374,92.3472,191.7742,5.882025,0.0690898,0.50520836,357.6109,07/04.0/2023,2000,g 10.0,4.0
# From MPEC 2022-C56
200P/Larsen,e,12.0985,234.7311,134.3665,4.947592,0.0895598,0.33245538,128.4968,07/04.0/2023,2000,g  9.0,4.0
# From MPC 93588
201P/LONEOS,e,5.7392,19.7437,41.5474,3.354744,0.1604039,0.63744655,123.1980,07/04.0/2023,2000,g 14.0,4.0
# From MPEC 2022-X67
202P/Scotti,e,2.1420,177.3456,274.4670,4.117720,0.1179557,0.25489340,322.4764,07/04.0/2023,2000,g 13.5,4.0
# From MPEC 2021-S45
203P/Korlevic,e,2.9733,290.2716,154.7962,4.669119,0.0976903,0.31591473,118.7708,07/04.0/2023,2000,g 14.5,2.0
# From MPEC 2023-KD6
204P/LINEAR-NEAT,e,6.5959,108.4962,356.6642,3.582415,0.1453585,0.48794239,33.3041,07/04.0/2023,2000,g 14.0,4.0
# From MPEC 2023-A50
205P/Giacobini,e,15.3061,179.6041,154.1784,3.542070,0.1478490,0.56786958,79.3073,07/04.0/2023,2000,g 13.0,4.0
# From MPC 75725
206P/Barnard-Boattini,e,33.6409,202.3306,189.5478,3.490399,0.1511442,0.55152489,128.6591,07/04.0/2023,2000,g 19.0,4.0
# From MPC 75725
207P/NEAT,e,10.2016,198.1600,273.0034,3.881697,0.1288759,0.75838072,332.7029,07/04.0/2023,2000,g 16.0,4.0
# From MPEC 2022-K19
208P/McMillan,e,4.4125,36.3397,310.6250,4.040768,0.1213412,0.37408860,309.4334,07/04.0/2023,2000,g 12.5,4.0
# From MPEC 2023-CD7
209P/LINEAR,e,21.2778,62.7659,152.4607,2.959303,0.1936065,0.67377481,287.0961,07/04.0/2023,2000,g 17.0,2.0
# From MPC105242
210P/Christensen,e,10.2785,93.7999,345.9081,3.162764,0.1752281,0.83378890,207.0721,07/04.0/2023,2000,g 13.5,4.0
# From MPEC 2023-KD6
211P/Hill,e,18.9184,117.1264,4.2983,3.548256,0.1474625,0.34403346,40.1598,07/04.0/2023,2000,g 12.5,4.0
# From MPEC 2021-F20
212P/NEAT,e,22.1437,98.0135,14.0254,3.901988,0.1278719,0.58696290,322.1361,07/04.0/2023,2000,g 17.0,2.0
# From MPEC 2022-GA9
213P/VanNess,e,10.3810,311.2751,5.7745,3.345449,0.1610729,0.40804191,338.9403,07/04.0/2023,2000,g 10.5,4.0
# From MPC 92986
214P/LINEAR,e,15.1829,348.2449,190.1639,3.619188,0.1431487,0.48586061,40.2000,07/04.0/2023,2000,g 13.0,4.0
# From MPEC 2023-B57
215P/NEAT,e,10.5768,56.6765,262.4202,4.331905,0.1093165,0.16590793,144.6189,07/04.0/2023,2000,g 11.0,4.0
# From MPC100284
216P/LINEAR,e,9.0634,359.7984,151.7222,3.857159,0.1301077,0.44852125,335.6897,07/04.0/2023,2000,g 13.0,4.0
# From MPEC 2023-J29
217P/LINEAR,e,12.8622,125.4101,246.9657,3.947906,0.1256475,0.68930601,273.2035,07/04.0/2023,2000,g 12.0,4.0
# From MPEC 2022-K19
218P/LINEAR,e,2.7306,176.0115,59.5235,3.086367,0.1817744,0.62404255,182.2763,07/04.0/2023,2000,g 16.0,4.0
# From MPEC 2023-N01
219P/LINEAR,e,11.5398,230.9529,107.5990,3.645765,0.1415862,0.35404396,328.1800,07/04.0/2023,2000,g 11.0,4.0
# From MPEC 2021-BE3
220P/McNaught,e,8.1266,150.1065,180.6114,3.118126,0.1790044,0.50116088,167.4694,07/04.0/2023,2000,g 15.0,4.0
# From MPEC 2022-UY9
221P/LINEAR,e,11.4834,229.5777,40.0065,3.454037,0.1535372,0.49513314,86.3307,07/04.0/2023,2000,g 14.5,4.0
# From MPC 92277
222P/LINEAR,e,5.0975,6.7737,346.2858,2.898339,0.1997470,0.71475369,297.3048,07/04.0/2023,2000,g 20.0,4.0
# From MPEC 2023-A50
223P/Skiff,e,27.0196,346.7607,37.8835,4.158505,0.1162246,0.41656859,187.9051,07/04.0/2023,2000,g 12.0,4.0
# From MPEC 2023-BF4
224P/LINEAR-NEAT,e,13.3058,40.0376,16.6967,3.443949,0.1542123,0.40584952,42.7137,07/04.0/2023,2000,g 15.5,4.0
# From MPC 75727
225P/LINEAR,e,21.3667,14.2044,3.9143,3.648700,0.1414154,0.63855381,355.0421,07/04.0/2023,2000,g 18.0,4.0
# From MPC106349
226P/Pigott-LINEAR-Kowalski,e,44.0446,54.0131,341.0799,3.766154,0.1348519,0.52903243,336.2314,07/04.0/2023,2000,g 12.5,4.0
# From MPC102956
227P/Catalina-LINEAR,e,7.5092,36.8114,105.5173,3.438886,0.1545530,0.52776560,321.6483,07/04.0/2023,2000,g 16.5,2.0
# From MPEC 2022-HC2
228P/LINEAR,e,7.9132,30.9851,114.8019,4.165994,0.1159114,0.17644243,140.6197,07/04.0/2023,2000,g 14.1,4.0
# From MPC106349
229P/Gibbs,e,26.0921,157.8961,224.1036,3.925518,0.1267239,0.37799831,282.6354,07/04.0/2023,2000,g 13.0,4.0
# From MPEC 2023-KD6
230P/LINEAR,e,15.4680,106.9695,313.4780,3.453219,0.1535917,0.54563426,72.4311,07/04.0/2023,2000,g 13.0,4.0
# From MPEC 2022-K19
231P/LINEAR-NEAT,e,12.2848,132.9323,44.1891,4.050275,0.1209142,0.24185954,179.2992,07/04.0/2023,2000,g 14.5,2.0
# From MPC112394
232P/Hill,e,14.6438,56.0274,53.2174,4.474165,0.1041444,0.33505980,161.4129,07/04.0/2023,2000,g 11.5,4.0
# From MPEC 2021-N06
233P/La Sagra,e,11.2897,74.9187,26.9559,3.028082,0.1870479,0.41239313,188.0150,07/04.0/2023,2000,g 15.0,4.0
# From MPEC 2022-K19
234P/LINEAR,e,11.5355,179.5694,357.3760,3.795700,0.1332804,0.25662040,296.3609,07/04.0/2023,2000,g 12.0,4.0
# From MPC110497
